0 THOR ABLESTAR DEB
1 00234U 61015BS  13281.92008639  .00000211  00000-0  18689-3 0  1940
2 00234 066.8762 141.5221 0078628 257.3688 204.1721 14.01299551662178
0 THOR ABLESTAR DEB
1 00234U 61015BS  13283.99335752  .00000134  00000-0  13717-3 0  1950
2 00234 066.8760 136.3863 0078591 255.9939 223.0254 14.01301287662465
0 THOR ABLESTAR DEB
1 00234U 61015BS  13286.00056133  .00000183  00000-0  16909-3 0  1969
2 00234 066.8758 131.4142 0078558 254.6932 268.5824 14.01301840662743
0 THOR ABLESTAR DEB
1 00234U 61015BS  13288.40857097  .00000350  00000-0  27645-3 0  1979
2 00234 066.8758 125.4494 0078482 253.0862 176.1015 14.01302634663083
0 THOR ABLESTAR DEB
1 00234U 61015BS  13290.76794211  .00000193  00000-0  17539-3 0  1986
2 00234 066.8761 119.6044 0078404 251.4766 198.2959 14.01305457663417
0 THOR ABLESTAR DEB
1 00234U 61015BS  13292.83959788  .00000191  00000-0  17380-3 0  1991
2 00234 066.8764 114.4724 0078347 250.1158 209.0337 14.01306814663706
0 THOR ABLESTAR DEB
1 00234U 61015BS  13294.91256352  .00000358  00000-0  28203-3 0  2003
2 00234 066.8766 109.3371 0078281 248.7339 226.4176 14.01306944663999
